AL-FARABI 2             
1 43805U 18099AZ  26068.93474492  .00177018  00000+0  15579-2 0  9993
2 43805  97.4095 144.7856 0004544 216.2732 143.8222 15.68201380399390
JILIN-1 GAOFEN 03D15    
1 51839U 22019R   26068.99869863  .00128061  00000+0  10884-2 0  9990
2 51839  97.3690 160.2320 0003986 172.8619 187.2700 15.69208440224413
